<?xml version="1.0" encoding="utf-8"?>
<Satelite>
<SateliteInfo>
	<Item ID="573"/>
	<Item NAME="00573"/>
	<Item TLE="1 00573U 63013A   10108.32762351 -.00000008  00000-0  00000+0 0  1649 2 00573  42.7351  94.1969 4014140 163.5906 214.6776  6.39246879208783"/>
	<Item INCLINATION="42.735100000000003"/>
	<Item RAAN="94.196899999999999"/>
	<Item ECCENTRICITY="0.401414000000000"/>
	<Item PERIGEE="163.591000000000010"/>
	<Item MEAN_ANOMALY="214.678000000000000"/>
	<Item MEAN_MOTION="6.392470000000000"/>
	<Item Nation="6"/>
	<Item FlatType="2"/>
	<Item Mission="2"/>
	<Item SecretRank="0"/>
	<Item Apogee="10808.000000000000000"/>
	<Item SatIconName="1.png#1.png"/>
	<Item SatModelName="北斗导航试验卫星"/>
</SateliteInfo>
<SateliteInfo>
	<Item ID="82"/>
	<Item NAME="00082"/>
	<Item TLE="1 00082U 61004B   10108.43070536  .00000225  00000-0  22176-3 0  3454 2 00082  38.8529 257.9578 1172669 174.8259 186.5862 12.25236342352206"/>
	<Item INCLINATION="38.852899999999998"/>
	<Item RAAN="257.958000000000030"/>
	<Item ECCENTRICITY="0.117267000000000"/>
	<Item PERIGEE="174.825999999999990"/>
	<Item MEAN_ANOMALY="186.586000000000010"/>
	<Item MEAN_MOTION="12.252400000000000"/>
	<Item Nation="2"/>
	<Item FlatType="2"/>
	<Item Mission="2"/>
	<Item SecretRank="0"/>
	<Item Apogee="2501.000000000000000"/>
	<Item SatIconName="1.png#1.png"/>
	<Item SatModelName="北斗导航试验卫星"/>
</SateliteInfo>
<SateliteInfo>
	<Item ID="85"/>
	<Item NAME="00085"/>
	<Item TLE="1 00085U 61004C   10108.51055544  .00001288  00000-0  39426-3 0  3779 2 00085  38.7627 157.9168 0536024  97.7559 268.4347 13.84298916408510"/>
	<Item INCLINATION="38.762700000000002"/>
	<Item RAAN="157.917000000000000"/>
	<Item ECCENTRICITY="0.053602400000000"/>
	<Item PERIGEE="97.755899999999997"/>
	<Item MEAN_ANOMALY="268.435000000000000"/>
	<Item MEAN_MOTION="13.843000000000000"/>
	<Item Nation="3"/>
	<Item FlatType="1"/>
	<Item Mission="3"/>
	<Item SecretRank="0"/>
	<Item Apogee="1341.000000000000000"/>
	<Item SatIconName="1.png#1.png"/>
	<Item SatModelName="北斗导航试验卫星"/>
</SateliteInfo>
<SateliteInfo>
	<Item ID="107"/>
	<Item NAME="00107"/>
	<Item TLE="1 00107U 61013A   10108.15161158  .00000532  00000-0  54886-4 0  9936 2 00107  28.7871 155.7820 0584691 162.5213 199.6396 13.99705900442987"/>
	<Item INCLINATION="28.787099999999999"/>
	<Item RAAN="155.782000000000010"/>
	<Item ECCENTRICITY="0.058469100000000"/>
	<Item PERIGEE="162.520999999999990"/>
	<Item MEAN_ANOMALY="199.639999999999990"/>
	<Item MEAN_MOTION="13.997100000000000"/>
	<Item Nation="4"/>
	<Item FlatType="2"/>
	<Item Mission="4"/>
	<Item SecretRank="0"/>
	<Item Apogee="1319.000000000000000"/>
	<Item SatIconName="1.png#1.png"/>
	<Item SatModelName="北斗导航试验卫星"/>
</SateliteInfo>
<SateliteInfo>
	<Item ID="115"/>
	<Item NAME="00115"/>
	<Item TLE="1 00115U 60002D   10108.18387995 -.00000008  00000-0  28973-4 0  1641 2 00115  48.1675  55.3160 0039767 151.0705 209.2410 14.76859867662622"/>
	<Item INCLINATION="48.167499999999997"/>
	<Item RAAN="55.316000000000003"/>
	<Item ECCENTRICITY="0.003976700000000"/>
	<Item PERIGEE="151.071000000000000"/>
	<Item MEAN_ANOMALY="209.241000000000010"/>
	<Item MEAN_MOTION="14.768599999999999"/>
	<Item Nation="5"/>
	<Item FlatType="1"/>
	<Item Mission="1"/>
	<Item SecretRank="0"/>
	<Item Apogee="667.000000000000000"/>
	<Item SatIconName="1.png#1.png"/>
	<Item SatModelName="北斗导航试验卫星"/>
</SateliteInfo>
<SateliteInfo>
	<Item ID="116"/>
	<Item NAME="00116"/>
	<Item TLE="1 00116U 61015A   10108.13310898 -.00000015  00000-0  47664-4 0  9947 2 00116  66.8086 282.9506 0069632  90.8928 270.0130 13.91321868475650"/>
	<Item INCLINATION="66.808599999999998"/>
	<Item RAAN="282.951000000000020"/>
	<Item ECCENTRICITY="0.006963200000000"/>
	<Item PERIGEE="90.892799999999994"/>
	<Item MEAN_ANOMALY="270.012999999999980"/>
	<Item MEAN_MOTION="13.913200000000000"/>
	<Item Nation="6"/>
	<Item FlatType="2"/>
	<Item Mission="2"/>
	<Item SecretRank="0"/>
	<Item Apogee="974.000000000000000"/>
	<Item SatIconName="1.png#1.png"/>
	<Item SatModelName="北斗导航试验卫星"/>
</SateliteInfo>
<SateliteInfo>
	<Item ID="117"/>
	<Item NAME="00117"/>
	<Item TLE="1 00117U 61015B   10108.71595495 -.00000046  00000-0  24256-4 0  6123 2 00117  66.8132 348.3479 0071926 106.8156 254.0836 13.89564944474148"/>
	<Item INCLINATION="66.813199999999995"/>
	<Item RAAN="348.348000000000010"/>
	<Item ECCENTRICITY="0.007192600000000"/>
	<Item PERIGEE="106.816000000000000"/>
	<Item MEAN_ANOMALY="254.084000000000000"/>
	<Item MEAN_MOTION="13.895600000000000"/>
	<Item Nation="7"/>
	<Item FlatType="1"/>
	<Item Mission="3"/>
	<Item SecretRank="0"/>
	<Item Apogee="982.000000000000000"/>
	<Item SatIconName="1.png#1.png"/>
	<Item SatModelName="北斗导航试验卫星"/>
</SateliteInfo>
<SateliteInfo>
	<Item ID="118"/>
	<Item NAME="00118"/>
	<Item TLE="1 00118U 61015C   10108.91740093  .00000061  00000-0  90996-4 0  2072 2 00118  66.7664 358.3450 0077123 105.2952 255.6634 14.00827837489382"/>
	<Item INCLINATION="66.766400000000004"/>
	<Item RAAN="358.345000000000030"/>
	<Item ECCENTRICITY="0.007712300000000"/>
	<Item PERIGEE="105.295000000000000"/>
	<Item MEAN_ANOMALY="255.663000000000010"/>
	<Item MEAN_MOTION="14.008300000000000"/>
	<Item Nation="8"/>
	<Item FlatType="2"/>
	<Item Mission="4"/>
	<Item SecretRank="0"/>
	<Item Apogee="946.000000000000000"/>
	<Item SatIconName="1.png#1.png"/>
	<Item SatModelName="北斗导航试验卫星"/>
</SateliteInfo>
<SateliteInfo>
	<Item ID="119"/>
	<Item NAME="00119"/>
	<Item TLE="1 00119U 61015D   10109.23918830 -.00000037  00000-0  20254-4 0  6578 2 00119  66.7283 160.6933 0110327 202.1627 157.4679 14.20603407518827"/>
	<Item INCLINATION="66.728300000000004"/>
	<Item RAAN="160.693000000000010"/>
	<Item ECCENTRICITY="0.011032700000000"/>
	<Item PERIGEE="202.163000000000010"/>
	<Item MEAN_ANOMALY="157.467999999999990"/>
	<Item MEAN_MOTION="14.206000000000000"/>
	<Item Nation="1"/>
	<Item FlatType="1"/>
	<Item Mission="1"/>
	<Item SecretRank="0"/>
	<Item Apogee="902.000000000000000"/>
	<Item SatIconName="1.png#1.png"/>
	<Item SatModelName="北斗导航试验卫星"/>
</SateliteInfo>
<SateliteInfo>
	<Item ID="120"/>
	<Item NAME="00120"/>
	<Item TLE="1 00120U 61015E   10108.39686819  .00000201  00000-0  11888-3 0  2317 2 00120  66.7083 267.9924 0129187 291.2891  67.4495 14.21774170507601"/>
	<Item INCLINATION="66.708299999999994"/>
	<Item RAAN="267.992000000000020"/>
	<Item ECCENTRICITY="0.012918700000000"/>
	<Item PERIGEE="291.288999999999990"/>
	<Item MEAN_ANOMALY="67.449500000000000"/>
	<Item MEAN_MOTION="14.217700000000001"/>
	<Item Nation="2"/>
	<Item FlatType="2"/>
	<Item Mission="2"/>
	<Item SecretRank="0"/>
	<Item Apogee="912.000000000000000"/>
	<Item SatIconName="1.png#1.png"/>
	<Item SatModelName="北斗导航试验卫星"/>
</SateliteInfo>
<SateliteInfo>
	<Item ID="121"/>
	<Item NAME="00121"/>
	<Item TLE="1 00121U 61015F   10108.95359570  .00000007  00000-0  56919-4 0  5335 2 00121  66.7492 301.9381 0092770 169.3056 191.0044 13.99255802500222"/>
	<Item INCLINATION="66.749200000000002"/>
	<Item RAAN="301.937999999999990"/>
	<Item ECCENTRICITY="0.009277000000000"/>
	<Item PERIGEE="169.306000000000010"/>
	<Item MEAN_ANOMALY="191.003999999999990"/>
	<Item MEAN_MOTION="13.992599999999999"/>
	<Item Nation="3"/>
	<Item FlatType="1"/>
	<Item Mission="3"/>
	<Item SecretRank="0"/>
	<Item Apogee="963.000000000000000"/>
	<Item SatIconName="1.png#1.png"/>
	<Item SatModelName="北斗导航试验卫星"/>
</SateliteInfo>
<SateliteInfo>
	<Item ID="123"/>
	<Item NAME="00123"/>
	<Item TLE="1 00123U 61015H   10107.76129092  .00000037  00000-0  42201-4 0  4420 2 00123  66.6788 220.0553 0127715 254.8826 103.8117 14.34135227531770"/>
	<Item INCLINATION="66.678799999999995"/>
	<Item RAAN="220.055000000000010"/>
	<Item ECCENTRICITY="0.012771500000000"/>
	<Item PERIGEE="254.883000000000010"/>
	<Item MEAN_ANOMALY="103.812000000000000"/>
	<Item MEAN_MOTION="14.341400000000000"/>
	<Item Nation="5"/>
	<Item FlatType="1"/>
	<Item Mission="1"/>
	<Item SecretRank="0"/>
	<Item Apogee="869.000000000000000"/>
	<Item SatIconName="1.png#1.png"/>
	<Item SatModelName="北斗导航试验卫星"/>
</SateliteInfo>
<SateliteInfo>
	<Item ID="124"/>
	<Item NAME="00124"/>
	<Item TLE="1 00124U 61015J   10108.04283082  .00000145  00000-0  91456-4 0  8568 2 00124  66.5439 314.7582 0086152 254.7949 104.3629 14.27041282515045"/>
	<Item INCLINATION="66.543899999999994"/>
	<Item RAAN="314.757999999999980"/>
	<Item ECCENTRICITY="0.008615200000000"/>
	<Item PERIGEE="254.794999999999990"/>
	<Item MEAN_ANOMALY="104.363000000000000"/>
	<Item MEAN_MOTION="14.270400000000000"/>
	<Item Nation="6"/>
	<Item FlatType="2"/>
	<Item Mission="2"/>
	<Item SecretRank="0"/>
	<Item Apogee="863.000000000000000"/>
	<Item SatIconName="1.png#1.png"/>
	<Item SatModelName="北斗导航试验卫星"/>
</SateliteInfo>
<SateliteInfo>
	<Item ID="125"/>
	<Item NAME="00125"/>
	<Item TLE="1 00125U 61015K   10108.77676158 -.00000269  00000-0 -11804-3 0  5822 2 00125  66.8750 251.7316 0071133  52.9899 307.7673 14.03790841488239"/>
	<Item INCLINATION="66.875000000000000"/>
	<Item RAAN="251.732000000000000"/>
	<Item ECCENTRICITY="0.007113300000000"/>
	<Item PERIGEE="52.989899999999999"/>
	<Item MEAN_ANOMALY="307.767000000000000"/>
	<Item MEAN_MOTION="14.037900000000000"/>
	<Item Nation="7"/>
	<Item FlatType="1"/>
	<Item Mission="3"/>
	<Item SecretRank="0"/>
	<Item Apogee="932.000000000000000"/>
	<Item SatIconName="1.png#1.png"/>
	<Item SatModelName="北斗导航试验卫星"/>
</SateliteInfo>
<SateliteInfo>
	<Item ID="126"/>
	<Item NAME="00126"/>
	<Item TLE="1 00126U 61015L   10108.72629454  .00000314  00000-0  14577-3 0  8973 2 00126  66.7131 201.5876 0080110 267.3996  91.7930 14.31287314517361"/>
	<Item INCLINATION="66.713099999999997"/>
	<Item RAAN="201.587999999999990"/>
	<Item ECCENTRICITY="0.008011000000000"/>
	<Item PERIGEE="267.399999999999980"/>
